[{"OBJECT_NAME":"IRIDIUM 152","OBJECT_ID":"2018-047D","EPOCH":"2026-03-06T11:20:10.278816","MEAN_MOTION":14.34217764,"ECCENTRICITY":0.00022663,"INCLINATION":86.398,"RA_OF_ASC_NODE":131.2879,"ARG_OF_PERICENTER":93.0516,"MEAN_ANOMALY":267.0939,"EPHEMERIS_TYPE":0,"CLASSIFICATION_TYPE":"U","NORAD_CAT_ID":43479,"ELEMENT_SET_NO":999,"REV_AT_EPOCH":40776,"BSTAR":6.71367e-6,"MEAN_MOTION_DOT":3.9e-7,"MEAN_MOTION_DDOT":0},{"OBJECT_NAME":"IRIDIUM 147","OBJECT_ID":"2018-047E","EPOCH":"2026-03-06T06:27:53.700192","MEAN_MOTION":14.34220953,"ECCENTRICITY":0.00022526,"INCLINATION":86.3982,"RA_OF_ASC_NODE":131.376,"ARG_OF_PERICENTER":99.5382,"MEAN_ANOMALY":260.6069,"EPHEMERIS_TYPE":0,"CLASSIFICATION_TYPE":"U","NORAD_CAT_ID":43480,"ELEMENT_SET_NO":999,"REV_AT_EPOCH":40773,"BSTAR":9.8020393e-5,"MEAN_MOTION_DOT":2.94e-6,"MEAN_MOTION_DDOT":0},{"OBJECT_NAME":"IRIDIUM 110","OBJECT_ID":"2018-047F","EPOCH":"2026-03-06T06:37:02.303904","MEAN_MOTION":14.34217642,"ECCENTRICITY":0.00024168,"INCLINATION":86.3988,"RA_OF_ASC_NODE":131.462,"ARG_OF_PERICENTER":88.4233,"MEAN_ANOMALY":271.7239,"EPHEMERIS_TYPE":0,"CLASSIFICATION_TYPE":"U","NORAD_CAT_ID":43481,"ELEMENT_SET_NO":999,"REV_AT_EPOCH":40772,"BSTAR":-4.403257e-6,"MEAN_MOTION_DOT":7.0e-8,"MEAN_MOTION_DDOT":0},{"OBJECT_NAME":"IRIDIUM 162","OBJECT_ID":"2018-047G","EPOCH":"2026-03-06T04:57:12.335328","MEAN_MOTION":14.43284094,"ECCENTRICITY":0.00021014,"INCLINATION":86.4505,"RA_OF_ASC_NODE":131.4308,"ARG_OF_PERICENTER":92.316,"MEAN_ANOMALY":267.8281,"EPHEMERIS_TYPE":0,"CLASSIFICATION_TYPE":"U","NORAD_CAT_ID":43482,"ELEMENT_SET_NO":999,"REV_AT_EPOCH":41027,"BSTAR":0.00012272054,"MEAN_MOTION_DOT":4.33e-6,"MEAN_MOTION_DDOT":0},{"OBJECT_NAME":"IRIDIUM 160","OBJECT_ID":"2018-061A","EPOCH":"2026-03-06T12:00:54.400896","MEAN_MOTION":14.3421817,"ECCENTRICITY":0.00023645,"INCLINATION":86.392,"RA_OF_ASC_NODE":99.751,"ARG_OF_PERICENTER":91.623,"MEAN_ANOMALY":268.5237,"EPHEMERIS_TYPE":0,"CLASSIFICATION_TYPE":"U","NORAD_CAT_ID":43569,"ELEMENT_SET_NO":999,"REV_AT_EPOCH":39865,"BSTAR":8.206627e-6,"MEAN_MOTION_DOT":4.3e-7,"MEAN_MOTION_DDOT":0},{"OBJECT_NAME":"IRIDIUM 166","OBJECT_ID":"2018-061B","EPOCH":"2026-03-06T09:16:30.400608","MEAN_MOTION":14.34217876,"ECCENTRICITY":0.00022211,"INCLINATION":86.392,"RA_OF_ASC_NODE":99.7507,"ARG_OF_PERICENTER":96.5954,"MEAN_ANOMALY":263.5495,"EPHEMERIS_TYPE":0,"CLASSIFICATION_TYPE":"U","NORAD_CAT_ID":43570,"ELEMENT_SET_NO":999,"REV_AT_EPOCH":39866,"BSTAR":-9.2525e-8,"MEAN_MOTION_DOT":2.0e-7,"MEAN_MOTION_DDOT":0},{"OBJECT_NAME":"IRIDIUM 158","OBJECT_ID":"2018-061C","EPOCH":"2026-03-06T13:32:14.332128","MEAN_MOTION":14.34218033,"ECCENTRICITY":0.00021187,"INCLINATION":86.3921,"RA_OF_ASC_NODE":99.6864,"ARG_OF_PERICENTER":89.7557,"MEAN_ANOMALY":270.3881,"EPHEMERIS_TYPE":0,"CLASSIFICATION_TYPE":"U","NORAD_CAT_ID":43571,"ELEMENT_SET_NO":999,"REV_AT_EPOCH":39865,"BSTAR":2.5447716e-5,"MEAN_MOTION_DOT":9.1e-7,"MEAN_MOTION_DDOT":0},{"OBJECT_NAME":"IRIDIUM 165","OBJECT_ID":"2018-061D","EPOCH":"2026-03-06T04:05:58.360704","MEAN_MOTION":14.34218323,"ECCENTRICITY":0.00022069,"INCLINATION":86.3919,"RA_OF_ASC_NODE":99.8948,"ARG_OF_PERICENTER":96.0733,"MEAN_ANOMALY":264.0715,"EPHEMERIS_TYPE":0,"CLASSIFICATION_TYPE":"U","NORAD_CAT_ID":43572,"ELEMENT_SET_NO":999,"REV_AT_EPOCH":39862,"BSTAR":2.1632405e-5,"MEAN_MOTION_DOT":8.0e-7,"MEAN_MOTION_DDOT":0},{"OBJECT_NAME":"IRIDIUM 155","OBJECT_ID":"2018-061E","EPOCH":"2026-03-06T08:12:34.388352","MEAN_MOTION":14.34217954,"ECCENTRICITY":0.00020667,"INCLINATION":86.3916,"RA_OF_ASC_NODE":99.6971,"ARG_OF_PERICENTER":93.9793,"MEAN_ANOMALY":266.1639,"EPHEMERIS_TYPE":0,"CLASSIFICATION_TYPE":"U","NORAD_CAT_ID":43573,"ELEMENT_SET_NO":999,"REV_AT_EPOCH":39861,"BSTAR":2.64554e-6,"MEAN_MOTION_DOT":2.7e-7,"MEAN_MOTION_DDOT":0},{"OBJECT_NAME":"IRIDIUM 154","OBJECT_ID":"2018-061F","EPOCH":"2026-03-06T19:28:26.611968","MEAN_MOTION":14.34223276,"ECCENTRICITY":0.0002248,"INCLINATION":86.392,"RA_OF_ASC_NODE":99.6298,"ARG_OF_PERICENTER":98.8536,"MEAN_ANOMALY":261.2914,"EPHEMERIS_TYPE":0,"CLASSIFICATION_TYPE":"U","NORAD_CAT_ID":43574,"ELEMENT_SET_NO":999,"REV_AT_EPOCH":39873,"BSTAR":9.6576e-5,"MEAN_MOTION_DOT":2.9e-6,"MEAN_MOTION_DDOT":0},{"OBJECT_NAME":"IRIDIUM 163","OBJECT_ID":"2018-061G","EPOCH":"2026-03-06T08:58:14.375136","MEAN_MOTION":14.34218409,"ECCENTRICITY":0.0002167,"INCLINATION":86.3916,"RA_OF_ASC_NODE":99.7313,"ARG_OF_PERICENTER":91.1728,"MEAN_ANOMALY":268.9716,"EPHEMERIS_TYPE":0,"CLASSIFICATION_TYPE":"U","NORAD_CAT_ID":43575,"ELEMENT_SET_NO":999,"REV_AT_EPOCH":39864,"BSTAR":2.4487697e-5,"MEAN_MOTION_DOT":8.8e-7,"MEAN_MOTION_DDOT":0},{"OBJECT_NAME":"IRIDIUM 156","OBJECT_ID":"2018-061H","EPOCH":"2026-03-06T08:21:42.338880","MEAN_MOTION":14.34218571,"ECCENTRICITY":0.0002028,"INCLINATION":86.3917,"RA_OF_ASC_NODE":99.7491,"ARG_OF_PERICENTER":93.7188,"MEAN_ANOMALY":266.424,"EPHEMERIS_TYPE":0,"CLASSIFICATION_TYPE":"U","NORAD_CAT_ID":43576,"ELEMENT_SET_NO":999,"REV_AT_EPOCH":39863,"BSTAR":3.6919165e-5,"MEAN_MOTION_DOT":1.23e-6,"MEAN_MOTION_DDOT":0},{"OBJECT_NAME":"IRIDIUM 164","OBJECT_ID":"2018-061J","EPOCH":"2026-03-06T04:33:22.466304","MEAN_MOTION":14.34218374,"ECCENTRICITY":0.00023406,"INCLINATION":86.3921,"RA_OF_ASC_NODE":99.8544,"ARG_OF_PERICENTER":97.3621,"MEAN_ANOMALY":262.784,"EPHEMERIS_TYPE":0,"CLASSIFICATION_TYPE":"U","NORAD_CAT_ID":43577,"ELEMENT_SET_NO":999,"REV_AT_EPOCH":39865,"BSTAR":9.6279742e-5,"MEAN_MOTION_DOT":2.89e-6,"MEAN_MOTION_DDOT":0},{"OBJECT_NAME":"IRIDIUM 159","OBJECT_ID":"2018-061K","EPOCH":"2026-03-06T18:51:54.452160","MEAN_MOTION":14.34217815,"ECCENTRICITY":0.000228,"INCLINATION":86.3917,"RA_OF_ASC_NODE":99.5434,"ARG_OF_PERICENTER":90.9089,"MEAN_ANOMALY":269.2368,"EPHEMERIS_TYPE":0,"CLASSIFICATION_TYPE":"U","NORAD_CAT_ID":43578,"ELEMENT_SET_NO":999,"REV_AT_EPOCH":39870,"BSTAR":2.9539e-6,"MEAN_MOTION_DOT":2.8e-7,"MEAN_MOTION_DDOT":0},{"OBJECT_NAME":"IRIDIUM 180","OBJECT_ID":"2019-002A","EPOCH":"2026-03-06T20:31:39.002592","MEAN_MOTION":14.3421689,"ECCENTRICITY":0.00022,"INCLINATION":86.3964,"RA_OF_ASC_NODE":36.3501,"ARG_OF_PERICENTER":85.0001,"MEAN_ANOMALY":275.1446,"EPHEMERIS_TYPE":0,"CLASSIFICATION_TYPE":"U","NORAD_CAT_ID":43922,"ELEMENT_SET_NO":999,"REV_AT_EPOCH":37432,"BSTAR":-3.4935e-5,"MEAN_MOTION_DOT":-7.8e-7,"MEAN_MOTION_DDOT":0},{"OBJECT_NAME":"IRIDIUM 176","OBJECT_ID":"2019-002B","EPOCH":"2026-03-06T09:24:13.209120","MEAN_MOTION":14.72251167,"ECCENTRICITY":0.00024332,"INCLINATION":86.609,"RA_OF_ASC_NODE":36.5011,"ARG_OF_PERICENTER":89.3193,"MEAN_ANOMALY":270.8303,"EPHEMERIS_TYPE":0,"CLASSIFICATION_TYPE":"U","NORAD_CAT_ID":43923,"ELEMENT_SET_NO":999,"REV_AT_EPOCH":38412,"BSTAR":0.00021686973,"MEAN_MOTION_DOT":1.392e-5,"MEAN_MOTION_DDOT":0},{"OBJECT_NAME":"IRIDIUM 168","OBJECT_ID":"2019-002C","EPOCH":"2026-03-06T06:58:46.628544","MEAN_MOTION":14.34214053,"ECCENTRICITY":0.00021805,"INCLINATION":86.3969,"RA_OF_ASC_NODE":36.6605,"ARG_OF_PERICENTER":85.7549,"MEAN_ANOMALY":274.3896,"EPHEMERIS_TYPE":0,"CLASSIFICATION_TYPE":"U","NORAD_CAT_ID":43924,"ELEMENT_SET_NO":999,"REV_AT_EPOCH":37422,"BSTAR":0.00012778116,"MEAN_MOTION_DOT":3.78e-6,"MEAN_MOTION_DDOT":0}]
