IRIDIUM 152             
1 43479U 18047D   26065.47234119  .00000039  00000+0  67137-5 0  9997
2 43479  86.3980 131.2879 0002266  93.0516 267.0939 14.34217764407763
IRIDIUM 147             
1 43480U 18047E   26065.26937153  .00000294  00000+0  98020-4 0  9991
2 43480  86.3982 131.3760 0002252  99.5382 260.6069 14.34220953407738
IRIDIUM 110             
1 43481U 18047F   26065.27572111  .00000007  00000+0 -44033-5 0  9991
2 43481  86.3988 131.4620 0002416  88.4233 271.7239 14.34217642407727
IRIDIUM 162             
1 43482U 18047G   26065.20639277  .00000433  00000+0  12272-3 0  9992
2 43482  86.4505 131.4308 0002101  92.3160 267.8281 14.43284094410273
IRIDIUM 160             
1 43569U 18061A   26065.50062964  .00000043  00000+0  82066-5 0  9997
2 43569  86.3920  99.7510 0002364  91.6230 268.5237 14.34218170398659
IRIDIUM 166             
1 43570U 18061B   26065.38646297  .00000020  00000+0 -92525-7 0  9991
2 43570  86.3920  99.7507 0002221  96.5954 263.5495 14.34217876398660
IRIDIUM 158             
1 43571U 18061C   26065.56405477  .00000091  00000+0  25448-4 0  9999
2 43571  86.3921  99.6864 0002118  89.7557 270.3881 14.34218033398655
IRIDIUM 165             
1 43572U 18061D   26065.17081436  .00000080  00000+0  21632-4 0  9991
2 43572  86.3919  99.8948 0002206  96.0733 264.0715 14.34218323398628
IRIDIUM 155             
1 43573U 18061E   26065.34206468  .00000027  00000+0  26455-5 0  9995
2 43573  86.3916  99.6971 0002066  93.9793 266.1639 14.34217954398612
IRIDIUM 154             
1 43574U 18061F   26065.81141912  .00000290  00000+0  96576-4 0  9992
2 43574  86.3920  99.6298 0002248  98.8536 261.2914 14.34223276398730
IRIDIUM 163             
1 43575U 18061G   26065.37377749  .00000088  00000+0  24488-4 0  9991
2 43575  86.3916  99.7313 0002167  91.1728 268.9716 14.34218409398640
IRIDIUM 156             
1 43576U 18061H   26065.34840670  .00000123  00000+0  36919-4 0  9999
2 43576  86.3917  99.7491 0002028  93.7188 266.4240 14.34218571398637
IRIDIUM 164             
1 43577U 18061J   26065.18984336  .00000289  00000+0  96280-4 0  9990
2 43577  86.3921  99.8544 0002340  97.3621 262.7840 14.34218374398650
IRIDIUM 159             
1 43578U 18061K   26065.78604690  .00000028  00000+0  29539-5 0  9994
2 43578  86.3917  99.5434 0002280  90.9089 269.2368 14.34217815398703
IRIDIUM 180             
1 43922U 19002A   26065.85531253 -.00000078  00000+0 -34935-4 0  9997
2 43922  86.3964  36.3501 0002200  85.0001 275.1446 14.34216890374320
IRIDIUM 176             
1 43923U 19002B   26065.39181955  .00001392  00000+0  21687-3 0  9994
2 43923  86.6090  36.5011 0002433  89.3193 270.8303 14.72251167384120
IRIDIUM 168             
1 43924U 19002C   26065.29081746  .00000378  00000+0  12778-3 0  9995
2 43924  86.3969  36.6605 0002180  85.7549 274.3896 14.34214053374224
